OBJECT_NAME,OBJECT_ID,EPOCH,MEAN_MOTION,ECCENTRICITY,INCLINATION,RA_OF_ASC_NODE,ARG_OF_PERICENTER,MEAN_ANOMALY,EPHEMERIS_TYPE,CLASSIFICATION_TYPE,NORAD_CAT_ID,ELEMENT_SET_NO,REV_AT_EPOCH,BSTAR,MEAN_MOTION_DOT,MEAN_MOTION_DDOT
LEMUR-1,2014-033AL,2026-07-08T22:03:32.487264,14.85324329,.0048317,97.7901,339.2449,8.5943,351.6089,0,U,40044,999,64869,.14819226E-3,.1245E-4,0
LEMUR-2-GREENBERG,2017-042N,2026-07-09T05:37:06.468096,15.32026060,.000714,97.3832,10.7689,284.7697,75.2753,0,U,42837,999,49176,.41638677E-3,.12814E-3,0
LEMUR-2-ANDIS,2017-042P,2026-07-09T17:35:06.455040,15.35772741,.0007099,97.3683,11.5304,281.4571,78.5875,0,U,42838,999,49191,.45347E-3,.15725E-3,0
LEMUR-2-MONSON,2017-042Q,2026-07-09T17:58:54.052608,15.28660176,.0005126,97.4092,11.2195,270.2225,89.8427,0,U,42839,999,49161,.34886E-3,.9654E-4,0
LEMUR-2-FURIAUS,2017-042R,2026-07-09T18:22:55.841376,15.31011310,.0006413,97.3780,9.2029,351.0660,9.0465,0,U,42840,999,49166,.43013E-3,.12826E-3,0
LEMUR-2-PETERG,2017-042S,2026-07-08T22:45:16.101792,15.34864591,.00029308,97.3999,15.0281,250.3592,109.7335,0,U,42841,999,49177,.45426881E-3,.15292E-3,0
LEMUR-2-DEMBITZ,2017-042T,2026-07-08T17:45:22.592448,15.30969559,.00051261,97.3834,11.2222,303.4427,56.6324,0,U,42842,999,49164,.39206163E-3,.11664E-3,0
LEMUR-2-ZACHARY,2017-042W,2026-07-09T19:57:23.285664,15.52354875,.000238,97.3589,22.9819,275.3054,84.7927,0,U,42845,999,49271,.66596E-3,.40627E-3,0
LEMUR-2-AMANDA-SVANTE,2021-034B,2026-07-09T04:42:22.404096,15.35697209,.00042461,97.5750,269.0822,157.2695,202.8737,0,U,48269,999,28443,.73787317E-3,.25594E-3,0
LEMUR-2-SPECIAL-K,2021-034F,2026-07-08T18:48:22.999392,15.72370976,.00058642,97.5632,278.3223,219.6394,140.4441,0,U,48273,999,28507,.14929865E-2,.202245E-2,0
LEMUR-2-EMBRIONOVIS,2023-084AQ,2026-07-09T07:48:10.613376,15.38125065,.00078489,97.6309,335.3863,229.1156,130.9409,0,U,56970,999,17108,.28505246E-3,.10624E-3,0
LEMUR-2-DEVERILL-M-T,2023-100F,2026-07-07T16:45:47.686176,15.40821036,.00047974,99.4460,233.3957,329.3522,30.7437,0,U,57391,999,16440,.3956978E-3,.16121E-3,0
LEMUR-2-BASS,2023-174D,2026-07-09T20:04:22.800000,15.43870414,.0007911,97.3844,275.8760,94.1413,266.0739,0,U,58259,999,14885,.30063E-3,.13575E-3,0
LEMUR-2-JK0903EM1407,2023-174CJ,2026-07-09T15:24:23.988384,15.52862811,.0004082,97.3917,281.7629,51.7216,308.4404,0,U,58336,999,14921,.31633E-3,.19554E-3,0
LEMUR-2-MJR092620,2023-174CN,2026-07-09T01:06:29.265120,15.45702331,.00058914,97.3971,280.4893,50.7251,309.4519,0,U,58340,999,14902,.2952654E-3,.14182E-3,0
LEMUR-2-NIMBUS2000,2024-022A,2026-07-08T15:29:08.176992,15.40918823,.00094074,97.4096,39.9264,49.8701,310.3369,0,U,58899,999,13557,.39954574E-3,.16384E-3,0
LEMUR-2-VALHALLA,2024-022B,2026-07-08T12:25:21.736416,15.40344373,.00099081,97.4095,39.7731,46.0433,314.1629,0,U,58900,999,13555,.30170396E-3,.12113E-3,0
LEMUR-2-CAEL,2024-022E,2026-07-08T23:07:21.353376,15.41708829,.00078482,97.4079,41.1995,30.7349,329.4356,0,U,58903,999,13569,.30790464E-3,.1293E-3,0
LEMUR-2-JOHNNYTRUONG,2024-043BA,2026-07-08T16:26:29.091552,15.62171037,.00043294,97.5388,342.7481,112.0392,248.1325,0,U,59146,999,13139,.37828482E-3,.33181E-3,0
LEMUR-2-TOMATOKECHUP,2024-149D,2026-07-09T04:31:06.191904,15.36499131,.00030093,97.3793,272.2971,133.0589,227.0907,0,U,60471,999,10554,.23391621E-3,.8251E-4,0
LEMUR-2-STELLA,2024-149BT,2026-07-09T01:15:57.192192,15.12285468,.00010331,97.6729,272.6092,111.4430,248.6911,0,U,60533,999,10380,.46022355E-3,.7901E-4,0
LEMUR-2-MARHISYAM,2024-149BW,2026-07-09T04:10:02.902080,15.11702055,.0002797,97.6877,273.2018,78.4878,281.6666,0,U,60536,999,10380,.48492062E-3,.8195E-4,0
LEMUR-2-AHMED-ASRAR,2024-149DN,2026-07-09T15:34:41.761344,15.13228976,.0000696,97.7003,275.8609,238.2920,121.8243,0,U,60576,999,10396,.50191E-3,.8854E-4,0
LEMUR-2-LLOYD,2024-149DP,2026-07-09T01:13:20.078112,15.09671321,.00048155,97.6737,271.1966,85.7812,274.3967,0,U,60577,999,10369,.43277782E-3,.6907E-4,0
LEMUR-2-SQUIRRELCOMM,2024-149DQ,2026-07-08T00:49:41.985408,15.07397331,.00047468,97.6707,269.8822,354.4134,5.7039,0,U,60578,999,10354,.24740327E-3,.3681E-4,0
LEMUR-2-SIERRINI,2024-149DR,2026-07-09T04:50:06.033408,15.11428190,.00064759,97.6833,272.8968,106.2178,253.9765,0,U,60579,999,10378,.44695428E-3,.7493E-4,0
LEMUR-2-WILSON,2025-009CP,2026-07-09T04:17:57.532704,14.95266051,.00024383,97.7024,268.2582,357.7647,2.3562,0,U,62694,999,8064,.1489224E-3,.1582E-4,0
LEMUR-2-STAR-FOX,2025-009CR,2026-07-09T04:49:22.332288,15.02796400,.00030472,97.6923,271.6529,63.5435,296.6102,0,U,62696,999,8086,.32528538E-3,.4293E-4,0
LEMUR-2-ARIANNA,2025-009CU,2026-07-08T19:11:52.744992,15.02792285,.00034484,97.6861,271.0121,70.2797,289.8800,0,U,62699,999,8080,.30009095E-3,.3955E-4,0
LEMUR-2-ALISIA,2025-009DB,2026-07-09T04:09:14.708160,15.03115065,.00036028,97.6960,272.1946,148.4324,211.7118,0,U,62706,999,10346,.4518569E-3,.604E-4,0
